start=new Date('2022-03-24T00:00:00.000Z').valueOf();
sats=[{"ARG_OF_PERICENTER":"35.0834","FILE":"3371636","MEAN_MOTION":"15.08850259","LAUNCH_DATE":"2021-12-02","MEAN_ELEMENT_THEORY":"SGP4","NORAD_CAT_ID":"49744","COUNTRY_CODE":"US","RCS_SIZE":"LARGE","TLE_LINE2":"2 49744  53.2017 163.9965 0002012  35.0834 115.9535 15.08850259  3606","EPHEMERIS_TYPE":"0","GP_ID":"199538821","REV_AT_EPOCH":"360","MEAN_ANOMALY":"115.9535","SITE":"AFETR","MEAN_MOTION_DDOT":"0.0000000000000","REF_FRAME":"TEME","OBJECT_NAME":"STARLINK-3231","SEMIMAJOR_AXIS":"6917.849","APOAPSIS":"541.106","PERIAPSIS":"538.322","CLASSIFICATION_TYPE":"U","EPOCH":"2022-03-23T22:00:00.999936","BSTAR":"-0.00174020000000","OBJECT_ID":"2021-115W","PERIOD":"95.437","MEAN_MOTION_DOT":"-0.00027885","DECAY_DATE":null,"OBJECT_TYPE":"PAYLOAD","ELEMENT_SET_NO":"999","CENTER_NAME":"EARTH","INCLINATION":"53.2017","TLE_LINE1":"1 49744U 21115W   22082.91667824 -.00027885  00000-0 -17402-2 0  9993","RA_OF_ASC_NODE":"163.9965","TIME_SYSTEM":"UTC","ECCENTRICITY":"0.00020120"},{"LAUNCH_DATE":"2021-12-02","NORAD_CAT_ID":"49745","MEAN_ELEMENT_THEORY":"SGP4","COUNTRY_CODE":"US","RCS_SIZE":"LARGE","ARG_OF_PERICENTER":"41.9982","MEAN_MOTION":"15.08847427","FILE":"3371636","GP_ID":"199540073","REV_AT_EPOCH":"360","SITE":"AFETR","MEAN_ANOMALY":"169.0666","EPHEMERIS_TYPE":"0","TLE_LINE2":"2 49745  53.2157 163.9495 0001701  41.9982 169.0666 15.08847427  3602","EPOCH":"2022-03-23T22:00:00.999936","CLASSIFICATION_TYPE":"U","BSTAR":"-0.00139900000000","PERIOD":"95.437","OBJECT_ID":"2021-115X","MEAN_MOTION_DOT":"-0.00022489","DECAY_DATE":null,"MEAN_MOTION_DDOT":"0.0000000000000","OBJECT_NAME":"STARLINK-3241","REF_FRAME":"TEME","SEMIMAJOR_AXIS":"6917.858","APOAPSIS":"540.899","PERIAPSIS":"538.546","RA_OF_ASC_NODE":"163.9495","TIME_SYSTEM":"UTC","ECCENTRICITY":"0.00017010","OBJECT_TYPE":"PAYLOAD","ELEMENT_SET_NO":"999","INCLINATION":"53.2157","CENTER_NAME":"EARTH","TLE_LINE1":"1 49745U 21115X   22082.91667824 -.00022489  00000-0 -13990-2 0  9997"},{"PERIOD":"95.437","OBJECT_ID":"2021-115Y","MEAN_MOTION_DOT":"-0.00018414","DECAY_DATE":null,"EPOCH":"2022-03-23T22:00:00.999936","CLASSIFICATION_TYPE":"U","BSTAR":"-0.00114140000000","SEMIMAJOR_AXIS":"6917.843","APOAPSIS":"540.940","PERIAPSIS":"538.476","MEAN_MOTION_DDOT":"0.0000000000000","OBJECT_NAME":"STARLINK-3233","REF_FRAME":"TEME","TIME_SYSTEM":"UTC","ECCENTRICITY":"0.00017810","RA_OF_ASC_NODE":"164.0402","CENTER_NAME":"EARTH","INCLINATION":"53.1948","TLE_LINE1":"1 49746U 21115Y   22082.91667824 -.00018414  00000-0 -11414-2 0  9990","OBJECT_TYPE":"PAYLOAD","ELEMENT_SET_NO":"999","COUNTRY_CODE":"US","RCS_SIZE":"LARGE","LAUNCH_DATE":"2021-12-02","NORAD_CAT_ID":"49746","MEAN_ELEMENT_THEORY":"SGP4","ARG_OF_PERICENTER":"48.9018","MEAN_MOTION":"15.08852287","FILE":"3371636","SITE":"AFETR","MEAN_ANOMALY":"62.1547","GP_ID":"199539823","REV_AT_EPOCH":"360","TLE_LINE2":"2 49746  53.1948 164.0402 0001781  48.9018  62.1547 15.08852287  3606","EPHEMERIS_TYPE":"0"},{"COUNTRY_CODE":"US","RCS_SIZE":"LARGE","LAUNCH_DATE":"2021-12-02","MEAN_ELEMENT_THEORY":"SGP4","NORAD_CAT_ID":"49747","ARG_OF_PERICENTER":"43.4714","FILE":"3371636","MEAN_MOTION":"15.08861618","MEAN_ANOMALY":"127.5055","SITE":"AFETR","GP_ID":"199539072","REV_AT_EPOCH":"360","TLE_LINE2":"2 49747  53.2090 163.9707 0001888  43.4714 127.5055 15.08861618  3601","EPHEMERIS_TYPE":"0","OBJECT_ID":"2021-115Z","PERIOD":"95.436","MEAN_MOTION_DOT":"-0.00019600","DECAY_DATE":null,"CLASSIFICATION_TYPE":"U","EPOCH":"2022-03-23T22:00:00.999936","BSTAR":"-0.00121600000000","SEMIMAJOR_AXIS":"6917.814","PERIAPSIS":"538.373","APOAPSIS":"540.985","MEAN_MOTION_DDOT":"0.0000000000000","REF_FRAME":"TEME","OBJECT_NAME":"STARLINK-3247","TIME_SYSTEM":"UTC","ECCENTRICITY":"0.00018880","RA_OF_ASC_NODE":"163.9707","INCLINATION":"53.2090","CENTER_NAME":"EARTH","TLE_LINE1":"1 49747U 21115Z   22082.91667824 -.00019600  00000-0 -12160-2 0  9998","OBJECT_TYPE":"PAYLOAD","ELEMENT_SET_NO":"999"},{"BSTAR":"-0.00421350000000","EPOCH":"2022-03-23T22:00:00.999936","CLASSIFICATION_TYPE":"U","DECAY_DATE":null,"MEAN_MOTION_DOT":"-0.00066787","PERIOD":"95.435","OBJECT_ID":"2021-115AA","OBJECT_NAME":"STARLINK-3248","REF_FRAME":"TEME","MEAN_MOTION_DDOT":"0.0000000000000","PERIAPSIS":"538.275","APOAPSIS":"541.011","SEMIMAJOR_AXIS":"6917.778","RA_OF_ASC_NODE":"163.8802","ECCENTRICITY":"0.00019780","TIME_SYSTEM":"UTC","ELEMENT_SET_NO":"999","OBJECT_TYPE":"PAYLOAD","TLE_LINE1":"1 49748U 21115AA  22082.91667824 -.00066787  00000-0 -42135-2 0  9992","CENTER_NAME":"EARTH","INCLINATION":"53.2288","NORAD_CAT_ID":"49748","MEAN_ELEMENT_THEORY":"SGP4","LAUNCH_DATE":"2021-12-02","RCS_SIZE":"LARGE","COUNTRY_CODE":"US","MEAN_MOTION":"15.08873533","FILE":"3371636","ARG_OF_PERICENTER":"38.2404","REV_AT_EPOCH":"360","GP_ID":"199539322","SITE":"AFETR","MEAN_ANOMALY":"32.7779","TLE_LINE2":"2 49748  53.2288 163.8802 0001978  38.2404  32.7779 15.08873533  3603","EPHEMERIS_TYPE":"0"},{"COUNTRY_CODE":"US","RCS_SIZE":"LARGE","LAUNCH_DATE":"2021-12-02","NORAD_CAT_ID":"49749","MEAN_ELEMENT_THEORY":"SGP4","ARG_OF_PERICENTER":"51.8904","MEAN_MOTION":"15.08850127","FILE":"3371636","SITE":"AFETR","MEAN_ANOMALY":"79.1402","GP_ID":"199539573","REV_AT_EPOCH":"360","EPHEMERIS_TYPE":"0","TLE_LINE2":"2 49749  53.1999 164.0067 0001528  51.8904  79.1402 15.08850127  3607","PERIOD":"95.437","OBJECT_ID":"2021-115AB","MEAN_MOTION_DOT":"-0.00039751","DECAY_DATE":null,"EPOCH":"2022-03-23T22:00:00.999936","CLASSIFICATION_TYPE":"U","BSTAR":"-0.00249260000000","SEMIMAJOR_AXIS":"6917.849","PERIAPSIS":"538.657","APOAPSIS":"540.771","MEAN_MOTION_DDOT":"0.0000000000000","OBJECT_NAME":"STARLINK-3250","REF_FRAME":"TEME","TIME_SYSTEM":"UTC","ECCENTRICITY":"0.00015280","RA_OF_ASC_NODE":"164.0067","CENTER_NAME":"EARTH","INCLINATION":"53.1999","TLE_LINE1":"1 49749U 21115AB  22082.91667824 -.00039751  00000-0 -24926-2 0  9992","OBJECT_TYPE":"PAYLOAD","ELEMENT_SET_NO":"999"},{"CLASSIFICATION_TYPE":"U","EPOCH":"2022-03-23T22:00:00.999936","BSTAR":"-0.00385220000000","OBJECT_ID":"2021-115AC","PERIOD":"95.436","DECAY_DATE":null,"MEAN_MOTION_DOT":"-0.00061111","MEAN_MOTION_DDOT":"0.0000000000000","REF_FRAME":"TEME","OBJECT_NAME":"STARLINK-3236","SEMIMAJOR_AXIS":"6917.817","PERIAPSIS":"538.385","APOAPSIS":"540.980","RA_OF_ASC_NODE":"163.9224","TIME_SYSTEM":"UTC","ECCENTRICITY":"0.00018760","OBJECT_TYPE":"PAYLOAD","ELEMENT_SET_NO":"999","INCLINATION":"53.2176","CENTER_NAME":"EARTH","TLE_LINE1":"1 49750U 21115AC  22082.91667824 -.00061111  00000-0 -38522-2 0  9996","LAUNCH_DATE":"2021-12-02","MEAN_ELEMENT_THEORY":"SGP4","NORAD_CAT_ID":"49750","COUNTRY_CODE":"US","RCS_SIZE":"LARGE","ARG_OF_PERICENTER":"38.6794","FILE":"3371636","MEAN_MOTION":"15.08860577","GP_ID":"199540324","REV_AT_EPOCH":"361","MEAN_ANOMALY":"352.3648","SITE":"AFETR","EPHEMERIS_TYPE":"0","TLE_LINE2":"2 49750  53.2176 163.9224 0001876  38.6794 352.3648 15.08860577  3615"},{"RA_OF_ASC_NODE":"163.8552","ECCENTRICITY":"0.00017500","TIME_SYSTEM":"UTC","ELEMENT_SET_NO":"999","OBJECT_TYPE":"PAYLOAD","TLE_LINE1":"1 49751U 21115AD  22082.91667824 -.00048898  00000-0 -30733-2 0  9990","CENTER_NAME":"EARTH","INCLINATION":"53.2331","BSTAR":"-0.00307330000000","EPOCH":"2022-03-23T22:00:00.999936","CLASSIFICATION_TYPE":"U","DECAY_DATE":null,"MEAN_MOTION_DOT":"-0.00048898","PERIOD":"95.436","OBJECT_ID":"2021-115AD","OBJECT_NAME":"STARLINK-3229","REF_FRAME":"TEME","MEAN_MOTION_DDOT":"0.0000000000000","PERIAPSIS":"538.465","APOAPSIS":"540.887","SEMIMAJOR_AXIS":"6917.811","REV_AT_EPOCH":"360","GP_ID":"199538572","SITE":"AFETR","MEAN_ANOMALY":"43.1603","TLE_LINE2":"2 49751  53.2331 163.8552 0001750  47.8341  43.1603 15.08862675  3609","EPHEMERIS_TYPE":"0","NORAD_CAT_ID":"49751","MEAN_ELEMENT_THEORY":"SGP4","LAUNCH_DATE":"2021-12-02","RCS_SIZE":"LARGE","COUNTRY_CODE":"US","MEAN_MOTION":"15.08862675","FILE":"3371636","ARG_OF_PERICENTER":"47.8341"},{"MEAN_ANOMALY":"156.1012","SITE":"AFETR","GP_ID":"199538822","REV_AT_EPOCH":"365","TLE_LINE2":"2 49752  53.2174 154.8270 0001335  83.2429 156.1012 15.27042172  3659","EPHEMERIS_TYPE":"0","COUNTRY_CODE":"US","RCS_SIZE":"LARGE","LAUNCH_DATE":"2021-12-02","MEAN_ELEMENT_THEORY":"SGP4","NORAD_CAT_ID":"49752","ARG_OF_PERICENTER":"83.2429","FILE":"3371636","MEAN_MOTION":"15.27042172","TIME_SYSTEM":"UTC","ECCENTRICITY":"0.00013350","RA_OF_ASC_NODE":"154.8270","INCLINATION":"53.2174","CENTER_NAME":"EARTH","TLE_LINE1":"1 49752U 21115AE  22082.91667824 -.00662070  00000-0 -26537-1 0  9991","OBJECT_TYPE":"PAYLOAD","ELEMENT_SET_NO":"999","OBJECT_ID":"2021-115AE","PERIOD":"94.300","MEAN_MOTION_DOT":"-0.00662070","DECAY_DATE":null,"CLASSIFICATION_TYPE":"U","EPOCH":"2022-03-23T22:00:00.999936","BSTAR":"-0.02653700000000","SEMIMAJOR_AXIS":"6862.797","PERIAPSIS":"483.746","APOAPSIS":"485.578","MEAN_MOTION_DDOT":"0.0000000000000","REF_FRAME":"TEME","OBJECT_NAME":"STARLINK-3209"},{"TLE_LINE1":"1 49753U 21115AF  22082.91667824 -.00057621  00000-0 -36284-2 0  9993","INCLINATION":"53.2234","CENTER_NAME":"EARTH","ELEMENT_SET_NO":"999","OBJECT_TYPE":"PAYLOAD","ECCENTRICITY":"0.00019060","TIME_SYSTEM":"UTC","RA_OF_ASC_NODE":"163.9023","APOAPSIS":"540.972","PERIAPSIS":"538.335","SEMIMAJOR_AXIS":"6917.788","OBJECT_NAME":"STARLINK-3200","REF_FRAME":"TEME","MEAN_MOTION_DDOT":"0.0000000000000","MEAN_MOTION_DOT":"-0.00057621","DECAY_DATE":null,"PERIOD":"95.436","OBJECT_ID":"2021-115AF","BSTAR":"-0.00362840000000","EPOCH":"2022-03-23T22:00:00.999936","CLASSIFICATION_TYPE":"U","TLE_LINE2":"2 49753  53.2234 163.9023 0001906  42.4259   8.5697 15.08870156  3600","EPHEMERIS_TYPE":"0","SITE":"AFETR","MEAN_ANOMALY":"8.5697","REV_AT_EPOCH":"360","GP_ID":"199540074","MEAN_MOTION":"15.08870156","FILE":"3371636","ARG_OF_PERICENTER":"42.4259","RCS_SIZE":"LARGE","COUNTRY_CODE":"US","NORAD_CAT_ID":"49753","MEAN_ELEMENT_THEORY":"SGP4","LAUNCH_DATE":"2021-12-02"}];
